NORAD_CAT_ID,OBJECT_NAME,OBJECT_TYPE,EPOCH,MEAN_MOTION,ECCENTRICITY,INCLINATION,RA_OF_ASC_NODE,ARG_OF_PERICENTER,MEAN_ANOMALY,BSTAR,MEAN_MOTION_DOT,MEAN_MOTION_DDOT,TLE_LINE0,TLE_LINE1,TLE_LINE2,SEMIMAJOR_AXIS,PERIOD,APOGEE,PERIGEE,DECAYED
53833.0,STARLINK-4771,PAYLOAD,2023-07-31 19:44:07,15.08836072,0.0001735,53.2157,257.0842,88.8482,271.2709,-4.9924e-05,-1.082e-05,0.0,0 STARLINK-4771,1 53833U 22114R   23212.82230326 -.00001082  00000-0 -49924-4 0  9993,2 53833  53.2157 257.0842 0001735  88.8482 271.2709 15.08836072 48593,6917.892,95.438,540.958,538.557,0.0
53833.0,STARLINK-4771,PAYLOAD,2023-08-02 03:31:49,15.08839103,0.0001222,53.2155,251.1382,90.4395,269.6737,2.3946e-05,9.3e-07,0.0,0 STARLINK-4771,1 53833U 22114R   23214.14710198  .00000093  00000-0  23946-4 0  9995,2 53833  53.2155 251.1382 0001222  90.4395 269.6737 15.08839103 48790,6917.883,95.438,540.593,538.903,0.0
53833.0,STARLINK-4771,PAYLOAD,2023-08-03 09:44:09,15.08847425,0.0001215,53.2151,245.4887,88.9474,271.1658,0.00022063,3.226e-05,0.0,0 STARLINK-4771,1 53833U 22114R   23215.40565992  .00003226  00000-0  22063-3 0  9994,2 53833  53.2151 245.4887 0001215  88.9474 271.1658 15.08847425 48981,6917.858,95.437,540.563,538.882,0.0
53833.0,STARLINK-4771,PAYLOAD,2023-08-04 01:38:00,15.08834723,0.0001274,53.2147,242.5153,90.1328,269.981,3.2594e-05,2.31e-06,0.0,0 STARLINK-4771,1 53833U 22114R   23216.06806644  .00000231  00000-0  32594-4 0  9993,2 53833  53.2147 242.5153 0001274  90.1328 269.9810 15.08834723 49082,6917.897,95.438,540.643,538.88,0.0
53833.0,STARLINK-4771,PAYLOAD,2023-08-05 07:50:20,15.08843154,0.0001309,53.2153,236.8654,87.8559,272.2583,0.00013229,1.818e-05,0.0,0 STARLINK-4771,1 53833U 22114R   23217.32662772  .00001818  00000-0  13229-3 0  9990,2 53833  53.2153 236.8654 0001309  87.8559 272.2583 15.08843154 49272,6917.871,95.437,540.641,538.83,0.0
53833.0,STARLINK-4771,PAYLOAD,2023-08-06 10:51:53,15.08848645,0.0001191,53.2144,231.8092,79.0614,281.0512,0.00025739,3.812e-05,0.0,0 STARLINK-4771,1 53833U 22114R   23218.45270404  .00003812  00000-0  25739-3 0  9997,2 53833  53.2144 231.8092 0001191  79.0614 281.0512 15.08848645 49446,6917.854,95.437,540.543,538.895,0.0
53833.0,STARLINK-4771,PAYLOAD,2023-08-07 01:10:22,15.08842577,0.000116,53.2135,229.1327,73.7979,286.3141,3.5798e-05,2.82e-06,0.0,0 STARLINK-4771,1 53833U 22114R   23219.04886641  .00000282  00000-0  35798-4 0  9994,2 53833  53.2135 229.1327 0001160  73.7979 286.3141 15.08842577 49532,6917.873,95.437,540.54,538.935,0.0
53833.0,STARLINK-4771,PAYLOAD,2023-08-08 10:33:27,15.08845685,0.0001279,53.215,222.8883,82.7385,277.3752,0.00010269,1.347e-05,0.0,0 STARLINK-4771,1 53833U 22114R   23220.43990380  .00001347  00000-0  10269-3 0  9993,2 53833  53.2150 222.8883 0001279  82.7385 277.3752 15.08845685 49742,6917.863,95.437,540.613,538.843,0.0
53833.0,STARLINK-4771,PAYLOAD,2023-08-09 00:51:56,15.08835407,0.0001197,53.2153,220.212,85.3158,274.7971,0.000103,1.352e-05,0.0,0 STARLINK-4771,1 53833U 22114R   23221.03607147  .00001352  00000-0  10300-3 0  9998,2 53833  53.2153 220.2120 0001197  85.3158 274.7971 15.08835407 49832,6917.894,95.438,540.587,538.931,0.0
53833.0,STARLINK-4771,PAYLOAD,2023-08-10 08:39:39,15.08841799,0.0001217,53.2158,214.2645,88.3702,271.7429,6.1015e-05,6.83e-06,0.0,0 STARLINK-4771,1 53833U 22114R   23222.36086995  .00000683  00000-0  61015-4 0  9993,2 53833  53.2158 214.2645 0001217  88.3702 271.7429 15.08841799 50033,6917.875,95.437,540.582,538.898,0.0
53833.0,STARLINK-4771,PAYLOAD,2023-08-11 16:27:22,15.08837241,0.0001347,53.2147,208.3165,87.645,272.4697,1.6878e-05,-1.9e-07,0.0,0 STARLINK-4771,1 53833U 22114R   23223.68567574 -.00000019  00000-0  16878-4 0  9997,2 53833  53.2147 208.3165 0001347  87.6450 272.4697 15.08837241 50232,6917.889,95.438,540.686,538.822,0.0
53833.0,STARLINK-4771,PAYLOAD,2023-08-13 08:12:00,15.08848383,0.0001271,53.2158,200.8827,84.7994,275.3143,8.5546e-05,1.074e-05,0.0,0 STARLINK-4771,1 53833U 22114R   23225.34166715  .00001074  00000-0  85546-4 0  9993,2 53833  53.2158 200.8827 0001271  84.7994 275.3143 15.08848383 50487,6917.855,95.437,540.599,538.841,0.0
53833.0,STARLINK-4771,PAYLOAD,2023-08-14 08:02:47,15.08840319,0.000128,53.2165,196.421,90.4671,269.6468,4.8247e-05,4.8e-06,0.0,0 STARLINK-4771,1 53833U 22114R   23226.33527311  .00000480  00000-0  48247-4 0  9993,2 53833  53.2165 196.4210 0001280  90.4671 269.6468 15.08840319 50631,6917.879,95.438,540.63,538.859,0.0
53833.0,STARLINK-4771,PAYLOAD,2023-08-16 01:22:49,15.08831189,0.000134,53.2161,188.6919,95.2307,264.8838,8.6185e-05,1.084e-05,0.0,0 STARLINK-4771,1 53833U 22114R   23228.05751930  .00001084  00000-0  86185-4 0  9994,2 53833  53.2161 188.6919 0001340  95.2307 264.8838 15.08831189 50893,6917.907,95.438,540.699,538.845,0.0
53833.0,STARLINK-4771,PAYLOAD,2023-08-17 05:59:45,15.08843425,0.0001295,53.2161,183.3388,93.9927,266.1213,8.8395e-05,1.119e-05,0.0,0 STARLINK-4771,1 53833U 22114R   23229.24983517  .00001119  00000-0  88395-4 0  9998,2 53833  53.2161 183.3388 0001295  93.9927 266.1213 15.08843425 51076,6917.87,95.437,540.631,538.839,0.0
53833.0,STARLINK-4771,PAYLOAD,2023-08-18 02:39:47,15.08837184,0.000142,53.2165,179.4734,86.928,273.1875,7.318e-05,8.77e-06,0.0,0 STARLINK-4771,1 53833U 22114R   23230.11096200  .00000877  00000-0  73180-4 0  9996,2 53833  53.2165 179.4734 0001420  86.9280 273.1875 15.08837184 51207,6917.889,95.438,540.736,538.772,0.0
53833.0,STARLINK-4771,PAYLOAD,2023-08-19 04:05:56,15.08847319,0.0001421,53.216,174.7149,87.3482,272.7673,0.00010219,1.339e-05,0.0,0 STARLINK-4771,1 53833U 22114R   23231.17079547  .00001339  00000-0  10219-3 0  9995,2 53833  53.2160 174.7149 0001421  87.3482 272.7673 15.08847319 51369,6917.858,95.437,540.706,538.74,0.0
53833.0,STARLINK-4771,PAYLOAD,2023-08-19 19:59:48,15.08835535,0.0001339,53.2175,171.7408,85.3771,274.7374,2.9708e-05,1.85e-06,0.0,0 STARLINK-4771,1 53833U 22114R   23231.83320560  .00000185  00000-0  29708-4 0  9994,2 53833  53.2175 171.7408 0001339  85.3771 274.7374 15.08835535 51465,6917.894,95.438,540.685,538.833,0.0
53833.0,STARLINK-4771,PAYLOAD,2023-08-20 05:32:07,15.08841148,0.0001415,53.2156,169.9574,88.0539,272.0616,4.9692e-05,5.03e-06,0.0,0 STARLINK-4771,1 53833U 22114R   23232.23064168  .00000503  00000-0  49692-4 0  9996,2 53833  53.2156 169.9574 0001415  88.0539 272.0616 15.08841148 51528,6917.877,95.437,540.721,538.763,0.0
53833.0,STARLINK-4771,PAYLOAD,2023-08-21 05:22:53,15.08852195,0.0001442,53.2164,165.4954,96.8516,263.264,7.6864e-05,9.36e-06,0.0,0 STARLINK-4771,1 53833U 22114R   23233.22423287  .00000936  00000-0  76864-4 0  9998,2 53833  53.2164 165.4954 0001442  96.8516 263.2640 15.08852195 51671,6917.843,95.437,540.706,538.711,0.0
53833.0,STARLINK-4771,PAYLOAD,2023-08-21 19:41:23,15.08835341,0.00017,53.2163,162.8192,94.1113,266.0074,4.6676e-05,4.55e-06,0.0,0 STARLINK-4771,1 53833U 22114R   23233.82040638  .00000455  00000-0  46676-4 0  9993,2 53833  53.2163 162.8192 0001700  94.1113 266.0074 15.08835341 51762,6917.895,95.438,540.936,538.584,0.0
53833.0,STARLINK-4771,PAYLOAD,2023-08-23 01:53:42,15.08844789,0.0001427,53.2175,157.1697,94.9472,265.1683,5.3377e-05,5.62e-06,0.0,0 STARLINK-4771,1 53833U 22114R   23235.07896325  .00000562  00000-0  53377-4 0  9999,2 53833  53.2175 157.1697 0001427  94.9472 265.1683 15.08844789 51957,6917.866,95.437,540.718,538.744,0.0
53833.0,STARLINK-4771,PAYLOAD,2023-08-24 03:19:52,15.08840335,0.0001422,53.2176,152.4119,99.7561,260.3592,0.00012153,1.647e-05,0.0,0 STARLINK-4771,1 53833U 22114R   23236.13880686  .00001647  00000-0  12153-3 0  9991,2 53833  53.2176 152.4119 0001422  99.7561 260.3592 15.08840335 52659,6917.879,95.438,540.728,538.761,0.0
53833.0,STARLINK-4771,PAYLOAD,2023-08-25 04:46:03,15.08825403,0.0001496,53.218,147.6535,100.2921,259.8239,0.00036466,5.518e-05,0.0,0 STARLINK-4771,1 53833U 22114R   23237.19865340  .00005518  00000-0  36466-3 0  9992,2 53833  53.2180 147.6535 0001496 100.2921 259.8239 15.08825403 52279,6917.925,95.438,540.825,538.755,0.0
53833.0,STARLINK-4771,PAYLOAD,2023-08-25 23:50:40,15.08843194,0.00015,53.2181,144.0845,93.8677,266.2487,0.00012218,1.657e-05,0.0,0 STARLINK-4771,1 53833U 22114R   23237.99352841  .00001657  00000-0  12218-3 0  9996,2 53833  53.2181 144.0845 0001500  93.8677 266.2487 15.08843194 52393,6917.871,95.437,540.773,538.698,0.0
53833.0,STARLINK-4771,PAYLOAD,2023-08-26 03:01:26,15.08848105,0.0001317,53.217,143.4905,97.0126,263.1015,0.00012526,1.707e-05,0.0,0 STARLINK-4771,1 53833U 22114R   23238.12600430  .00001707  00000-0  12526-3 0  9990,2 53833  53.2170 143.4905 0001317  97.0126 263.1015 15.08848105 52954,6917.856,95.437,540.632,538.81,0.0
53833.0,STARLINK-4771,PAYLOAD,2023-08-27 02:52:14,15.08844034,0.0001412,53.218,139.0297,90.5086,269.6068,9.2888e-05,1.191e-05,0.0,0 STARLINK-4771,1 53833U 22114R   23239.11960886  .00001191  00000-0  92888-4 0  9991,2 53833  53.2180 139.0297 0001412  90.5086 269.6068 15.08844034 52562,6917.868,95.437,540.71,538.756,0.0
53833.0,STARLINK-4771,PAYLOAD,2023-08-28 10:39:56,15.08840587,0.0001475,53.2174,133.0828,91.6557,268.4604,0.00015257,2.141e-05,0.0,0 STARLINK-4771,1 53833U 22114R   23240.44440953  .00002141  00000-0  15257-3 0  9997,2 53833  53.2174 133.0828 0001475  91.6557 268.4604 15.08840587 52767,6917.879,95.438,540.764,538.723,0.0
53833.0,STARLINK-4771,PAYLOAD,2023-08-28 17:01:29,15.088373,0.0001541,53.2178,131.8919,94.2171,265.8997,4.3418e-05,4.03e-06,0.0,0 STARLINK-4771,1 53833U 22114R   23240.70937454  .00000403  00000-0  43418-4 0  9993,2 53833  53.2178 131.8919 0001541  94.2171 265.8997 15.08837300 52803,6917.889,95.438,540.82,538.688,0.0
53833.0,STARLINK-4771,PAYLOAD,2023-08-28 20:12:16,15.0883988,0.0001377,53.2162,131.2996,86.3035,273.8115,5.4405e-05,5.78e-06,0.0,0 STARLINK-4771,1 53833U 22114R   23240.84185257  .00000578  00000-0  54405-4 0  9995,2 53833  53.2162 131.2996 0001377  86.3035 273.8115 15.08839880 53361,6917.881,95.438,540.698,538.793,0.0
